STARLINK-3052           
1 49165U 21082AM  22200.27795914 -.00000745  00000+0 -54682-4 0  9994
2 49165  70.0003  46.3639 0003180 260.1329  99.9471 14.98334366 48045
STARLINK-3089           
1 49166U 21082AN  22200.47573694  .00001264  00000+0  11839-3 0  9997
2 49166  70.0014  25.6112 0003224 258.6139 101.4657 14.96726143 48573
STARLINK-3054           
1 49167U 21082AP  22200.27318811  .00001172  00000+0  10600-3 0  9997
2 49167  69.9999  46.3807 0003187 254.8628 105.2178 14.98331734 48045
STARLINK-3101           
1 49168U 21082AQ  22200.52796330  .00001817  00000+0  16668-3 0  9998
2 49168  69.9993  25.4878 0003569 252.8800 107.1968 14.96718813 48582
STARLINK-3046           
1 49169U 21082AR  22200.46599314 -.00001766  00000+0 -14625-3 0  9991
2 49169  70.0006  25.6454 0003063 253.8821 106.2000 14.96728503 47376
STARLINK-3074           
1 49170U 21082AS  22200.31405108  .00000911  00000+0  84123-4 0  9994
2 49170  69.9989  46.2681 0003188 259.5001 100.5799 14.98333823 46850
STARLINK-3107           
1 49171U 21082AT  22199.99933045  .00000644  00000+0  61712-4 0  9994
2 49171  69.9993  47.0699 0002937 264.0629  96.0196 14.98338570 47969
STARLINK-3091           
1 49172U 21082AU  22200.50300310  .00000171  00000+0  22958-4 0  9992
2 49172  69.9995  25.5562 0003338 258.3231 101.7553 14.96714664 47379
STARLINK-3045           
1 49173U 21082AV  22200.52425117  .00003794  00000+0  33929-3 0  9991
2 49173  70.0014  25.4979 0003183 261.2478  98.8320 14.96717135 47385
STARLINK-3047           
1 49174U 21082AW  22200.51948126  .00005303  00000+0  46864-3 0  9991
2 49174  69.9982  25.4938 0002699 240.3490 119.7400 14.96910206 48551
STARLINK-3087           
1 49175U 21082AX  22200.48348031  .00000589  00000+0  59441-4 0  9994
2 49175  70.0007  25.6059 0003265 258.7844 101.2948 14.96722932 47374
STARLINK-3069           
1 49176U 21082AY  22200.16213992  .00000717  00000+0  70663-4 0  9999
2 49176  69.9980   6.1587 0003051 265.9990  94.0819 14.96723941 47824
STARLINK-3103           
1 49177U 21082AZ  22200.51585114  .00000031  00000+0  10700-4 0  9992
2 49177  69.9979   5.2705 0003235 258.2760 101.8035 14.96726988 49079
STARLINK-3086           
1 49178U 21082BA  22200.02793924 -.00000244  00000+0 -12670-4 0  9995
2 49178  70.0002  46.9979 0003041 255.9616 104.1205 14.98334427 47960
STARLINK-3043           
1 49179U 21082BB  22200.50607975  .00002926  00000+0  26347-3 0  9991
2 49179  69.9982   5.2924 0003237 252.8891 107.1913 14.96726412 47877
STARLINK-3050           
1 49180U 21082BC  22200.26351517  .00000194  00000+0  24928-4 0  9993
2 49180  69.9991  26.1453 0003175 251.1788 108.9026 14.96709670 48519
STARLINK-3059           
1 49181U 21082BD  22200.27590737  .00000799  00000+0  74758-4 0  9991
2 49181  69.9991  46.3765 0002931 272.2722  87.8101 14.98329265 48037
ONEWEB-0292             
1 49186U 21083A   22200.37665050 -.00000245  00000+0 -70549-3 0  9990
2 49186  87.8958 244.0722 0001873  97.3823 262.7519 13.13470185 43368
ONEWEB-0303             
1 49187U 21083B   22200.39614952 -.00000171  00000+0 -46601-3 0  9998
2 49187  87.9137 259.3436 0001949  80.2020 279.9332 13.18689323 41670
ONEWEB-0306             
1 49188U 21083C   22200.46582608  .00000055  00000+0  10716-3 0  9996
2 49188  87.9127 259.3173 0001565  86.4480 273.6831 13.18684296 43008
ONEWEB-0307             
1 49189U 21083D   22200.37214000 -.00000205  00000+0 -59736-3 0  9999
2 49189  87.8961 244.0721 0001939  91.1370 268.9981 13.13473600 43362
ONEWEB-0320             
1 49190U 21083E   22200.47047402 -.00000026  00000+0 -99917-4 0  9999
2 49190  87.9124 259.3343 0002217  95.1825 264.9560 13.18688044 41681
ONEWEB-0321             
1 49191U 21083F   22200.58334491 -.00018876  00000+0 -19547-2 0  9990
2 49191  87.2077 219.1765 0001718  29.8488 115.3194 14.90294474 47227
ONEWEB-0322             
1 49192U 21083G   22200.36769575 -.00000044  00000+0 -15486-3 0  9999
2 49192  87.8942 244.0678 0002567  99.5141 260.6279 13.13467329 43351
ONEWEB-0324             
1 49193U 21083H   22200.45964677  .00000050  00000+0  93948-4 0  9995
2 49193  87.9115 259.3289 0001855  80.8174 279.3168 13.18687570 41708
ONEWEB-0325             
1 49194U 21083J   22200.46273310 -.00000021  00000+0 -85935-4 0  9991
2 49194  87.9113 259.2131 0002805  94.4057 265.7396 13.18680774 42992
ONEWEB-0326             
1 49195U 21083K   22200.39769542  .00000035  00000+0  54974-4 0  9993
2 49195  87.9115 259.3234 0001808  74.7853 285.3479 13.18685260 41698
ONEWEB-0327             
1 49196U 21083L   22200.45807239 -.00000004  00000+0 -42182-4 0  9993
2 49196  87.9128 259.2865 0001646  74.5402 285.5911 13.18690124 43005
ONEWEB-0328             
1 49197U 21083M   22200.51108569  .00000120  00000+0  29383-3 0  9995
2 49197  87.8953 244.0442 0002119  89.0795 271.0577 13.13470632 43357
ONEWEB-0331             
1 49198U 21083N   22200.39305808  .00000015  00000+0  58807-5 0  9995
2 49198  87.9126 259.3432 0001933  84.6839 275.4514 13.18687052 41709
ONEWEB-0333             
1 49199U 21083P   22200.50660929  .00000161  00000+0  40636-3 0  9998
2 49199  87.8950 244.0460 0002290 102.5608 257.5777 13.13468539 44658
ONEWEB-0334             
1 49200U 21083Q   22200.58334491 -.00020215  00000+0 -20944-2 0  9994
2 49200  87.2038 219.0146 0002998 146.8104  56.2462 14.90275647  1304
ONEWEB-0335             
1 49201U 21083R   22200.50211805  .00000324  00000+0  85350-3 0  9990
2 49201  87.8941 244.0461 0002099  85.1854 274.9515 13.13467570 43374
ONEWEB-0336             
1 49202U 21083S   22200.39456138 -.00000099  00000+0 -30639-3 0  9999
2 49202  87.8949 244.0638 0002166  96.4994 263.6381 13.13471843 43356
ONEWEB-0337             
1 49203U 21083T   22200.41697449 -.00000031  00000+0 -12026-3 0  9991
2 49203  87.8944 244.0631 0002199  87.9128 272.2253 13.13471424 43354
ONEWEB-0338             
1 49204U 21083U   22200.58334491 -.00017186  00000+0 -17799-2 0  9995
2 49204  87.2097 219.2448 0001405 161.8155 304.6929 14.90287806 47213
ONEWEB-0339             
1 49205U 21083V   22200.41249803  .00000333  00000+0  87622-3 0  9997
2 49205  87.8949 244.0598 0002529  95.8121 264.3297 13.13467649 43333
ONEWEB-0340             
1 49206U 21083W   22200.45653916 -.00000003  00000+0 -39643-4 0  9993
2 49206  87.9117 259.3248 0002124  92.2494 267.8881 13.18687258 42968
ONEWEB-0341             
1 49207U 21083X   22200.46429182  .00000034  00000+0  54150-4 0  9993
2 49207  87.9138 259.2446 0003154  86.6011 273.5482 13.18687323 41690
ONEWEB-0342             
1 49208U 21083Y   22200.58334491 -.00016248  00000+0 -16822-2 0  9993
2 49208  87.2059 219.0943 0001309 154.9232 121.2625 14.90298890 47227
ONEWEB-0343             
1 49209U 21083Z   22200.46117339 -.00000704  00000+0 -18198-2 0  9999
2 49209  87.9128 259.2875 0003470  94.0639 266.0890 13.18686286 41740
ONEWEB-0344             
1 49210U 21083AA  22200.38112965 -.00000336  00000+0 -95447-3 0  9996
2 49210  87.8951 244.0699 0002082  92.7788 267.3579 13.13468773 43338
ONEWEB-0345             
1 49211U 21083AB  22200.39905731  .00000029  00000+0  45810-4 0  9996
2 49211  87.8938 244.0597 0002323  74.0734 286.0651 13.13470835 43345
ONEWEB-0346             
1 49212U 21083AC  22200.46737852  .00000027  00000+0  35455-4 0  9994
2 49212  87.9127 259.2782 0001845  79.1881 280.9459 13.18688158 41686
ONEWEB-0348             
1 49213U 21083AD  22200.58334491 -.00017927  00000+0 -18562-2 0  9997
2 49213  87.2084 219.1920 0002051 146.8365  85.5740 14.90296951 47225
ONEWEB-0350             
1 49214U 21083AE  22200.40801785  .00000157  00000+0  39596-3 0  9990
2 49214  87.8945 244.0784 0002651  76.3449 283.7975 13.13466924 43376
ONEWEB-0351             
1 49215U 21083AF  22200.58334491 -.00014856  00000+0 -15388-2 0  9990
2 49215  87.2014 218.9327 0002653 137.2382 217.9099 14.90277334 47232
ONEWEB-0352             
1 49216U 21083AG  22200.39007764 -.00000145  00000+0 -43224-3 0  9997
2 49216  87.8948 244.0656 0002071 104.8510 255.2849 13.13469061 43460
ONEWEB-0354             
1 49217U 21083AH  22200.58334491 -.00017697  00000+0 -18326-2 0  9993
2 49217  87.2069 219.1207 0001994 118.9772 131.4105 14.90292243 47245
ONEWEB-0355             
1 49218U 21083AJ  22200.49765633  .00000319  00000+0  83820-3 0  9993
2 49218  87.8953 244.0454 0002463  94.7816 265.3594 13.13467719 43350
ONEWEB-0357             
1 49219U 21083AK  22200.58334491 -.00020021  00000+0 -20732-2 0  9994
2 49219  87.2065 219.1123 0001330 166.4615  23.2554 14.90300020 47225
SZ-12 MODULE            
1 49221U 21053C   22200.48056971  .00042967  00000+0  31224-3 0  9997
2 49221  41.5535  15.3662 0012790 338.6824  21.3486 15.72451821 47820
TIANZHOU-3              
1 49222U 21085A   22200.77820872  .00016630  00000+0  19307-3 0  9990
2 49222  41.4732  20.4961 0001797 139.4649 340.3496 15.61382243 47267
JILIN-01 GAOFEN 2D      
1 49256U 21086A   22200.46021014  .00002994  00000+0  18556-3 0  9998
2 49256  97.5539 306.7391 0014287 352.8495  75.6181 15.10447595 44549
SHIYAN 10 (SY-10)       
1 49258U 21087A   22200.25125535  .00000291  00000+0  00000+0 0  9990
2 49258  63.6511  33.2769 7055678 269.5794 342.3158  2.00602174  5869
LANDSAT 9               
1 49260U 21088A   22200.45868650  .00000282  00000+0  72628-4 0  9998
2 49260  98.2263 270.2844 0001347 106.3781 253.7565 14.57093340 42938
CS1                     
1 49261U 21088B   22200.44330873  .00002621  00000+0  20635-3 0  9998
2 49261  97.5865 267.0889 0023977 334.7814  25.2238 15.01451265 44181
CS2                     
1 49262U 21088C   22200.46166325  .00003348  00000+0  26073-3 0  9999
2 49262  97.5866 267.3027 0022434 343.3391  16.7094 15.01704396 44195
CUTE                    
1 49263U 21088D   22200.41374109  .00004482  00000+0  33363-3 0  9996
2 49263  97.5849 267.6971 0019175 317.3430  42.6305 15.03303329 44221
